OBJECT_NAME,OBJECT_ID,EPOCH,MEAN_MOTION,ECCENTRICITY,INCLINATION,RA_OF_ASC_NODE,ARG_OF_PERICENTER,MEAN_ANOMALY,EPHEMERIS_TYPE,CLASSIFICATION_TYPE,NORAD_CAT_ID,ELEMENT_SET_NO,REV_AT_EPOCH,BSTAR,MEAN_MOTION_DOT,MEAN_MOTION_DDOT
BEIDOU-2 G8 (C01),2019-027A,2026-06-11T17:21:16.690176,1.00272924,.0010323,1.6429,74.5053,283.0731,307.3465,0,U,44231,999,2602,0,-.231E-5,0
COSMOS 2534 (758),2019-030A,2026-06-11T11:13:19.189344,2.13102304,.0013354,64.3681,192.8091,275.1032,156.1197,0,U,44299,999,5480,0,.121E-5,0
BEIDOU-3 IGSO-2 (C39),2019-035A,2026-06-10T23:54:00.220032,1.00268507,.0039933,55.2455,158.9168,216.3389,2.4216,0,U,44337,999,2560,0,-.37E-6,0
GPS BIII-2  (PRN 18),2019-056A,2026-06-11T15:53:36.970080,2.00569454,.0061796,55.6400,331.3626,197.5682,160.4551,0,U,44506,999,4995,0,-.66E-6,0
BEIDOU-3 M24 (C46),2019-061A,2026-06-11T08:03:49.249152,1.86229258,.0008267,54.3962,182.9254,358.9131,1.1499,0,U,44542,999,4568,0,.129E-5,0
BEIDOU-3 M23 (C45),2019-061B,2026-06-11T04:51:43.909056,1.86227378,.0005609,54.3946,182.8982,337.6908,204.5715,0,U,44543,999,4568,0,.129E-5,0
EUTELSAT 5 WEST B (EGNOS/PRN 121),2019-067A,2026-06-11T16:38:40.148736,1.00271886,.0002984,0.0627,353.5175,86.7801,64.4209,0,U,44624,999,2438,0,-.26E-6,0
BEIDOU-3 IGSO-3 (C40),2019-073A,2026-05-16T19:27:04.075776,1.00246251,.0042953,54.8566,281.2355,189.4588,170.3676,0,U,44709,999,2414,0,-.217E-5,0
BEIDOU-3 M22 (C44),2019-078A,2026-06-09T13:33:18.404640,1.86227604,.0006476,53.9433,300.0965,49.2798,310.7668,0,U,44793,999,4450,0,-.61E-6,0
BEIDOU-3 M21 (C43),2019-078B,2026-06-08T15:08:22.826400,1.86228036,.00043947,53.9173,300.0906,47.4319,312.5973,0,U,44794,999,4449,0,-.59E-6,0
COSMOS 2544 (759),2019-088A,2026-06-09T23:46:15.168576,2.13102164,.00134315,65.5614,73.9710,259.4785,100.3880,0,U,44850,999,5056,0,-.23E-6,0
BEIDOU-3 M19 (C41),2019-090A,2026-06-11T07:28:14.444256,1.86231661,.001803,56.5531,62.9856,297.6207,256.7794,0,U,44864,999,4412,0,-.54E-6,0
BEIDOU-3 M20 (C42),2019-090B,2026-06-10T02:22:05.520864,1.86231666,.00159258,56.5539,63.0605,311.2740,239.7297,0,U,44865,999,4408,0,-.5E-6,0
BEIDOU-3 G2 (C60),2020-017A,2026-06-11T17:02:48.460704,1.00272990,.0002312,2.8521,47.2527,31.5806,156.9880,0,U,45344,999,2320,0,-.126E-5,0
COSMOS 2545 (760),2020-018A,2026-06-11T02:58:33.354624,2.13102646,.0008122,64.3587,312.6323,231.2557,128.6643,0,U,45358,999,4853,0,-.43E-6,0
BEIDOU-3 G3 (C61),2020-040A,2026-06-11T15:49:20.916768,1.00269904,.0002619,2.4324,67.4380,337.6718,202.8001,0,U,45807,999,2201,0,-.338E-5,0
GPS BIII-3  (PRN 23),2020-041A,2026-06-10T12:13:09.899040,2.00558723,.0063583,56.6651,29.2031,204.6446,339.4563,0,U,45854,999,4390,0,-.64E-6,0
GALAXY 30 (WAAS/PRN 135),2020-056C,2026-06-11T16:04:20.942112,1.00270074,.0002095,0.0016,14.0582,71.7827,290.2690,0,U,46114,999,2123,0,.54E-6,0
COSMOS 2547 (705K),2020-075A,2026-06-11T07:31:27.036768,2.13100304,.0009249,64.5991,192.6716,239.6437,120.3411,0,U,46805,999,4378,0,.121E-5,0
GPS BIII-4  (PRN 14),2020-078A,2026-06-11T06:49:15.408768,2.00564772,.0073334,53.9805,211.0184,207.0647,152.7945,0,U,46826,999,4139,0,.85E-6,0
GPS BIII-5  (PRN 11),2021-054A,2026-06-11T11:57:56.321856,2.00569194,.0025307,55.1774,332.6886,228.5338,112.3097,0,U,48859,999,3663,0,-.66E-6,0
QZS-1R (QZSS/PRN 196),2021-096A,2026-06-11T15:33:15.227424,1.00257351,.075444,37.4503,79.6669,271.6776,276.3021,0,U,49336,999,1695,0,-.25E-5,0
GSAT0223 (GALILEO 27),2021-116A,2026-06-11T03:10:17.992416,1.70475860,.00014044,57.1623,341.8389,187.4451,176.2704,0,U,49809,999,2808,0,-.65E-6,0
GSAT0224 (GALILEO 28),2021-116B,2026-06-11T12:44:48.532128,1.70475859,.0000988,57.1633,341.8270,155.4898,205.7028,0,U,49810,999,2811,0,-.66E-6,0
COSMOS 2557 (706K),2022-075A,2026-06-09T03:09:24.236064,2.13102144,.00102294,64.3021,314.7692,275.2232,84.6583,0,U,52984,999,3054,0,-.34E-6,0
COSMOS 2559 (707K),2022-130A,2026-06-10T08:36:50.817600,2.13101643,.00124272,64.2757,314.8093,178.3735,181.6269,0,U,54031,999,2854,0,-.39E-6,0
COSMOS 2564 (761),2022-161A,2026-06-11T14:38:25.288224,2.13102006,.0012122,64.7412,192.8969,224.5159,135.4637,0,U,54377,999,2751,0,.121E-5,0
GPS BIII-6  (PRN 28),2023-009A,2026-06-07T17:40:41.611008,2.00572181,.0006216,55.1215,148.8907,316.9568,225.6480,0,U,55268,999,2505,0,.105E-5,0
BEIDOU-3 G4 (C62),2023-066A,2026-06-10T08:49:24.195360,1.00265779,.00043973,0.4953,329.6081,171.1303,30.2733,0,U,56564,999,1132,0,-.265E-5,0
NVS-01 (IRNSS-1J),2023-076A,2026-06-11T17:17:02.097024,1.00267511,.0003114,2.1798,244.6072,38.0522,6.2142,0,U,56759,999,1106,0,-.317E-5,0
COSMOS 2569 (703K),2023-114A,2026-06-11T03:40:24.851424,2.13103660,.0010896,65.2988,72.8239,296.8966,63.0099,0,U,57517,999,2213,0,-.3E-6,0
